[{"OBJECT_NAME":"STARLINK-4570","OBJECT_ID":"2022-105AU","EPOCH":"2026-03-09T16:11:26.072448","MEAN_MOTION":15.01260045,"ECCENTRICITY":0.00034422,"INCLINATION":97.6023,"RA_OF_ASC_NODE":310.1465,"ARG_OF_PERICENTER":48.0412,"MEAN_ANOMALY":312.1105,"EPHEMERIS_TYPE":0,"CLASSIFICATION_TYPE":"U","NORAD_CAT_ID":53690,"ELEMENT_SET_NO":999,"REV_AT_EPOCH":19323,"BSTAR":2.549325e-6,"MEAN_MOTION_DOT":-2.6e-7,"MEAN_MOTION_DDOT":0},{"OBJECT_NAME":"PSLV R\/B","OBJECT_ID":"2007-001E","EPOCH":"2026-03-09T22:10:17.317056","MEAN_MOTION":14.97920804,"ECCENTRICITY":0.00208593,"INCLINATION":98.0304,"RA_OF_ASC_NODE":98.4358,"ARG_OF_PERICENTER":74.2404,"MEAN_ANOMALY":286.1116,"EPHEMERIS_TYPE":0,"CLASSIFICATION_TYPE":"U","NORAD_CAT_ID":29713,"ELEMENT_SET_NO":999,"REV_AT_EPOCH":3805,"BSTAR":0.00025269605,"MEAN_MOTION_DOT":2.927e-5,"MEAN_MOTION_DDOT":0}]
